{
  "type": "FeatureCollection",
  "features": [
    {
      "type": "Feature",
      "properties": {
        "norad_id": 34301,
        "name": "COSMOS 2251 DEB",
        "group": "cosmos-2251-debris",
        "lat": 17.09393377070097,
        "lon": 141.96257076477158,
        "alt_km": 619.3374300112764,
        "timestamp": "2025-12-27T17:24:57.801597+00:00",
        "meta_object_name": "COSMOS 2251 DEB",
        "meta_object_id": "1993-036MX",
        "meta_epoch": "2025-12-27T11:09:39.950208",
        "meta_mean_motion": 14.85327341,
        "meta_eccentricity": 0.000951,
        "meta_inclination": 74.0058,
        "meta_ra_of_asc_node": 137.4205,
        "meta_arg_of_pericenter": 202.0472,
        "meta_mean_anomaly": 222.8382,
        "meta_ephemeris_type": 0,
        "meta_classification_type": "U",
        "meta_norad_cat_id": 34301,
        "meta_element_set_no": 999,
        "meta_rev_at_epoch": 88619,
        "meta_bstar": 0.003855,
        "meta_mean_motion_dot": 0.00033304,
        "meta_mean_motion_ddot": 0,
        "tle_line1": "1 34301U 93036MX  25361.46504572  .00033304  00000+0  38550-2 0  9997",
        "tle_line2": "2 34301  74.0058 137.4205 0009510 202.0472 222.8382 14.85327341886198"
      },
      "geometry": {
        "type": "Point",
        "coordinates": [
          141.96257076477158,
          17.09393377070097
        ]
      }
    },
    {
      "type": "Feature",
      "properties": {
        "norad_id": 34302,
        "name": "COSMOS 2251 DEB",
        "group": "cosmos-2251-debris",
        "lat": 9.238627615874371,
        "lon": -86.4861181536772,
        "alt_km": 803.2218380591885,
        "timestamp": "2025-12-27T17:24:57.801607+00:00",
        "meta_object_name": "COSMOS 2251 DEB",
        "meta_object_id": "1993-036MY",
        "meta_epoch": "2025-12-27T10:33:58.235040",
        "meta_mean_motion": 14.39387692,
        "meta_eccentricity": 0.0079634,
        "meta_inclination": 74.1789,
        "meta_ra_of_asc_node": 96.6795,
        "meta_arg_of_pericenter": 307.8707,
        "meta_mean_anomaly": 184.694,
        "meta_ephemeris_type": 0,
        "meta_classification_type": "U",
        "meta_norad_cat_id": 34302,
        "meta_element_set_no": 999,
        "meta_rev_at_epoch": 87932,
        "meta_bstar": 0.00071164,
        "meta_mean_motion_dot": 2.271e-05,
        "meta_mean_motion_ddot": 0,
        "tle_line1": "1 34302U 93036MY  25361.44025735  .00002271  00000+0  71164-3 0  9993",
        "tle_line2": "2 34302  74.1789  96.6795 0079634 307.8707 184.6940 14.39387692879326"
      },
      "geometry": {
        "type": "Point",
        "coordinates": [
          -86.4861181536772,
          9.238627615874371
        ]
      }
    },
    {
      "type": "Feature",
      "properties": {
        "norad_id": 34303,
        "name": "COSMOS 2251 DEB",
        "group": "cosmos-2251-debris",
        "lat": 73.5893142433562,
        "lon": 2.7369756457514125,
        "alt_km": 653.0995297583795,
        "timestamp": "2025-12-27T17:24:57.801618+00:00",
        "meta_object_name": "COSMOS 2251 DEB",
        "meta_object_id": "1993-036MZ",
        "meta_epoch": "2025-12-27T11:12:05.790816",
        "meta_mean_motion": 14.54656579,
        "meta_eccentricity": 0.0135716,
        "meta_inclination": 74.0046,
        "meta_ra_of_asc_node": 260.1218,
        "meta_arg_of_pericenter": 34.8401,
        "meta_mean_anomaly": 142.0634,
        "meta_ephemeris_type": 0,
        "meta_classification_type": "U",
        "meta_norad_cat_id": 34303,
        "meta_element_set_no": 999,
        "meta_rev_at_epoch": 88176,
        "meta_bstar": 0.0016858,
        "meta_mean_motion_dot": 8.132e-05,
        "meta_mean_motion_ddot": 0,
        "tle_line1": "1 34303U 93036MZ  25361.46673369  .00008132  00000+0  16858-2 0  9998",
        "tle_line2": "2 34303  74.0046 260.1218 0135716  34.8401 142.0634 14.54656579881761"
      },
      "geometry": {
        "type": "Point",
        "coordinates": [
          2.7369756457514125,
          73.5893142433562
        ]
      }
    },
    {
      "type": "Feature",
      "properties": {
        "norad_id": 34304,
        "name": "COSMOS 2251 DEB",
        "group": "cosmos-2251-debris",
        "lat": 27.218292337226497,
        "lon": 103.42983214860683,
        "alt_km": 849.3391051206945,
        "timestamp": "2025-12-27T17:24:57.801629+00:00",
        "meta_object_name": "COSMOS 2251 DEB",
        "meta_object_id": "1993-036NA",
        "meta_epoch": "2025-12-26T16:48:12.002688",
        "meta_mean_motion": 14.37997771,
        "meta_eccentricity": 0.01289226,
        "meta_inclination": 74.0136,
        "meta_ra_of_asc_node": 96.8421,
        "meta_arg_of_pericenter": 231.8358,
        "meta_mean_anomaly": 249.2914,
        "meta_ephemeris_type": 0,
        "meta_classification_type": "U",
        "meta_norad_cat_id": 34304,
        "meta_element_set_no": 999,
        "meta_rev_at_epoch": 87497,
        "meta_bstar": 0.0017543982,
        "meta_mean_motion_dot": 5.819e-05,
        "meta_mean_motion_ddot": 0,
        "tle_line1": "1 34304U 93036NA  25360.70013892  .00005819  00000+0  17544-2 0  9996",
        "tle_line2": "2 34304  74.0136  96.8421 0128922 231.8358 249.2914 14.37997771874972"
      },
      "geometry": {
        "type": "Point",
        "coordinates": [
          103.42983214860683,
          27.218292337226497
        ]
      }
    },
    {
      "type": "Feature",
      "properties": {
        "norad_id": 34307,
        "name": "COSMOS 2251 DEB",
        "group": "cosmos-2251-debris",
        "lat": 40.52235307163661,
        "lon": -56.78575566533924,
        "alt_km": 962.5329354180758,
        "timestamp": "2025-12-27T17:24:57.801639+00:00",
        "meta_object_name": "COSMOS 2251 DEB",
        "meta_object_id": "1993-036ND",
        "meta_epoch": "2025-12-27T05:21:34.460064",
        "meta_mean_motion": 13.54344682,
        "meta_eccentricity": 0.0391732,
        "meta_inclination": 74.0541,
        "meta_ra_of_asc_node": 289.8754,
        "meta_arg_of_pericenter": 117.6177,
        "meta_mean_anomaly": 0.875,
        "meta_ephemeris_type": 0,
        "meta_classification_type": "U",
        "meta_norad_cat_id": 34307,
        "meta_element_set_no": 999,
        "meta_rev_at_epoch": 83058,
        "meta_bstar": 0.0008404,
        "meta_mean_motion_dot": 9.16e-06,
        "meta_mean_motion_ddot": 0,
        "tle_line1": "1 34307U 93036ND  25361.22331551  .00000916  00000+0  84040-3 0  9991",
        "tle_line2": "2 34307  74.0541 289.8754 0391732 117.6177   0.8750 13.54344682830582"
      },
      "geometry": {
        "type": "Point",
        "coordinates": [
          -56.78575566533924,
          40.52235307163661
        ]
      }
    },
    {
      "type": "Feature",
      "properties": {
        "norad_id": 34313,
        "name": "COSMOS 2251 DEB",
        "group": "cosmos-2251-debris",
        "lat": 33.19252344020622,
        "lon": 83.09777633452047,
        "alt_km": 497.32173152263294,
        "timestamp": "2025-12-27T17:24:57.801649+00:00",
        "meta_object_name": "COSMOS 2251 DEB",
        "meta_object_id": "1993-036NK",
        "meta_epoch": "2025-12-27T04:09:34.667424",
        "meta_mean_motion": 15.21766557,
        "meta_eccentricity": 0.00122091,
        "meta_inclination": 73.9711,
        "meta_ra_of_asc_node": 275.1034,
        "meta_arg_of_pericenter": 59.5098,
        "meta_mean_anomaly": 300.7304,
        "meta_ephemeris_type": 0,
        "meta_classification_type": "U",
        "meta_norad_cat_id": 34313,
        "meta_element_set_no": 999,
        "meta_rev_at_epoch": 89284,
        "meta_bstar": 0.0053535033,
        "meta_mean_motion_dot": 0.0012372,
        "meta_mean_motion_ddot": 0,
        "tle_line1": "1 34313U 93036NK  25361.17331791  .00123720  00000+0  53535-2 0  9991",
        "tle_line2": "2 34313  73.9711 275.1034 0012209  59.5098 300.7304 15.21766557892849"
      },
      "geometry": {
        "type": "Point",
        "coordinates": [
          83.09777633452047,
          33.19252344020622
        ]
      }
    },
    {
      "type": "Feature",
      "properties": {
        "norad_id": 34314,
        "name": "COSMOS 2251 DEB",
        "group": "cosmos-2251-debris",
        "lat": 16.74520973038255,
        "lon": -73.40928800533139,
        "alt_km": 759.8111885145936,
        "timestamp": "2025-12-27T17:24:57.801660+00:00",
        "meta_object_name": "COSMOS 2251 DEB",
        "meta_object_id": "1993-036NL",
        "meta_epoch": "2025-12-27T06:14:36.273120",
        "meta_mean_motion": 14.17461679,
        "meta_eccentricity": 0.0103626,
        "meta_inclination": 74.0061,
        "meta_ra_of_asc_node": 282.4707,
        "meta_arg_of_pericenter": 24.7281,
        "meta_mean_anomaly": 138.364,
        "meta_ephemeris_type": 0,
        "meta_classification_type": "U",
        "meta_norad_cat_id": 34314,
        "meta_element_set_no": 999,
        "meta_rev_at_epoch": 86863,
        "meta_bstar": 0.00062467,
        "meta_mean_motion_dot": 1.31e-05,
        "meta_mean_motion_ddot": 0,
        "tle_line1": "1 34314U 93036NL  25361.26014205  .00001310  00000+0  62467-3 0  9995",
        "tle_line2": "2 34314  74.0061 282.4707 0103626  24.7281 138.3640 14.17461679868639"
      },
      "geometry": {
        "type": "Point",
        "coordinates": [
          -73.40928800533139,
          16.74520973038255
        ]
      }
    }
  ]
}